IRIDIUM 144             
1 43249U 18030A   25230.78406834  .00000052  00000+0  11410-4 0  9993
2 43249  86.3920  56.8132 0002193  91.1092 269.0355 14.34217213386818
IRIDIUM 149             
1 43250U 18030B   25230.58110470  .00000011  00000+0 -30773-5 0  9991
2 43250  86.3915  56.8687 0002119  91.7677 268.3761 14.34217369386783
IRIDIUM 157             
1 43251U 18030C   25230.60013217  .00000075  00000+0  19738-4 0  9992
2 43251  86.3920  56.9073 0002220  84.3271 275.8178 14.34218141386763
IRIDIUM 140             
1 43252U 18030D   25230.75869773  .00000086  00000+0  23797-4 0  9997
2 43252  86.3920  56.8543 0002132  94.1258 266.0181 14.34217600386845
IRIDIUM 145             
1 43253U 18030E   25230.81578115  .00000078  00000+0  20716-4 0  9991
2 43253  86.3920  56.8032 0002428  97.6535 262.4937 14.34218111386783
IRIDIUM 146             
1 43254U 18030F   25230.58744662  .00000078  00000+0  20653-4 0  9998
2 43254  86.3919  56.9121 0002370  96.8731 263.2735 14.34218286386763
IRIDIUM 148             
1 43255U 18030G   25230.55573525  .00000066  00000+0  16630-4 0  9991
2 43255  86.3921  56.9638 0002326  87.8277 272.3185 14.34217961386798
IRIDIUM 142             
1 43256U 18030H   25230.59378963  .00000008  00000+0 -40452-5 0  9992
2 43256  86.3915  56.8479 0002413  98.4796 261.6673 14.34217717386764
